{
  "type": "FeatureCollection",
  "features": [
    {
      "type": "Feature",
      "properties": {
        "norad_id": 29486,
        "name": "GPS BIIRM-2 (PRN 31)",
        "group": "gps-ops",
        "lat": -24.939675579160603,
        "lon": 139.417280466566,
        "alt_km": 20149.209790481196,
        "timestamp": "2025-12-14T11:29:50.319128+00:00",
        "meta_object_name": "GPS BIIRM-2 (PRN 31)",
        "meta_object_id": "2006-042A",
        "meta_epoch": "2025-12-13T12:57:38.926368",
        "meta_mean_motion": 2.00554149,
        "meta_eccentricity": 0.01073458,
        "meta_inclination": 54.6942,
        "meta_ra_of_asc_node": 158.7089,
        "meta_arg_of_pericenter": 51.9789,
        "meta_mean_anomaly": 320.1395,
        "meta_ephemeris_type": 0,
        "meta_classification_type": "U",
        "meta_norad_cat_id": 29486,
        "meta_element_set_no": 999,
        "meta_rev_at_epoch": 14067,
        "meta_bstar": 0,
        "meta_mean_motion_dot": 1.01e-06,
        "meta_mean_motion_ddot": 0,
        "tle_line1": "1 29486U 06042A   25347.54003387  .00000101  00000+0  00000+0 0  9992",
        "tle_line2": "2 29486  54.6942 158.7089 0107345  51.9789 320.1395  2.00554149140679"
      },
      "geometry": {
        "type": "Point",
        "coordinates": [
          139.417280466566,
          -24.939675579160603
        ]
      }
    },
    {
      "type": "Feature",
      "properties": {
        "norad_id": 29601,
        "name": "GPS BIIRM-3 (PRN 12)",
        "group": "gps-ops",
        "lat": 21.778056934000972,
        "lon": -122.40157607852272,
        "alt_km": 20062.414325709145,
        "timestamp": "2025-12-14T11:29:50.319139+00:00",
        "meta_object_name": "GPS BIIRM-3 (PRN 12)",
        "meta_object_id": "2006-052A",
        "meta_epoch": "2025-12-11T22:46:47.068032",
        "meta_mean_motion": 2.00573524,
        "meta_eccentricity": 0.00877389,
        "meta_inclination": 54.9707,
        "meta_ra_of_asc_node": 221.4296,
        "meta_arg_of_pericenter": 87.4221,
        "meta_mean_anomaly": 273.6564,
        "meta_ephemeris_type": 0,
        "meta_classification_type": "U",
        "meta_norad_cat_id": 29601,
        "meta_element_set_no": 999,
        "meta_rev_at_epoch": 13965,
        "meta_bstar": 0,
        "meta_mean_motion_dot": 9e-08,
        "meta_mean_motion_ddot": 0,
        "tle_line1": "1 29601U 06052A   25345.94915588  .00000009  00000+0  00000+0 0  9996",
        "tle_line2": "2 29601  54.9707 221.4296 0087738  87.4221 273.6564  2.00573524139650"
      },
      "geometry": {
        "type": "Point",
        "coordinates": [
          -122.40157607852272,
          21.778056934000972
        ]
      }
    },
    {
      "type": "Feature",
      "properties": {
        "norad_id": 32260,
        "name": "GPS BIIRM-4 (PRN 15)",
        "group": "gps-ops",
        "lat": 8.285483639780013,
        "lon": -98.39737916398316,
        "alt_km": 20132.21187301683,
        "timestamp": "2025-12-14T11:29:50.319151+00:00",
        "meta_object_name": "GPS BIIRM-4 (PRN 15)",
        "meta_object_id": "2007-047A",
        "meta_epoch": "2025-12-13T06:02:59.943552",
        "meta_mean_motion": 2.00564506,
        "meta_eccentricity": 0.01641392,
        "meta_inclination": 53.9555,
        "meta_ra_of_asc_node": 87.7372,
        "meta_arg_of_pericenter": 85.2518,
        "meta_mean_anomaly": 276.6128,
        "meta_ephemeris_type": 0,
        "meta_classification_type": "U",
        "meta_norad_cat_id": 32260,
        "meta_element_set_no": 999,
        "meta_rev_at_epoch": 13308,
        "meta_bstar": 0,
        "meta_mean_motion_dot": -3.9e-07,
        "meta_mean_motion_ddot": 0,
        "tle_line1": "1 32260U 07047A   25347.25208268 -.00000039  00000+0  00000+0 0  9996",
        "tle_line2": "2 32260  53.9555  87.7372 0164139  85.2518 276.6128  2.00564506133089"
      },
      "geometry": {
        "type": "Point",
        "coordinates": [
          -98.39737916398316,
          8.285483639780013
        ]
      }
    },
    {
      "type": "Feature",
      "properties": {
        "norad_id": 32384,
        "name": "GPS BIIRM-5 (PRN 29)",
        "group": "gps-ops",
        "lat": -46.81909506238533,
        "lon": -126.23284288363936,
        "alt_km": 20246.740025787178,
        "timestamp": "2025-12-14T11:29:50.319162+00:00",
        "meta_object_name": "GPS BIIRM-5 (PRN 29)",
        "meta_object_id": "2007-062A",
        "meta_epoch": "2025-12-13T07:26:31.680096",
        "meta_mean_motion": 2.00577339,
        "meta_eccentricity": 0.00322377,
        "meta_inclination": 55.1816,
        "meta_ra_of_asc_node": 281.623,
        "meta_arg_of_pericenter": 162.4378,
        "meta_mean_anomaly": 10.5516,
        "meta_ephemeris_type": 0,
        "meta_classification_type": "U",
        "meta_norad_cat_id": 32384,
        "meta_element_set_no": 999,
        "meta_rev_at_epoch": 13178,
        "meta_bstar": 0,
        "meta_mean_motion_dot": -8e-07,
        "meta_mean_motion_ddot": 0,
        "tle_line1": "1 32384U 07062A   25347.31008889 -.00000080  00000+0  00000+0 0  9990",
        "tle_line2": "2 32384  55.1816 281.6230 0032237 162.4378  10.5516  2.00577339131782"
      },
      "geometry": {
        "type": "Point",
        "coordinates": [
          -126.23284288363936,
          -46.81909506238533
        ]
      }
    },
    {
      "type": "Feature",
      "properties": {
        "norad_id": 32711,
        "name": "GPS BIIRM-6 (PRN 07)",
        "group": "gps-ops",
        "lat": -31.88211568750513,
        "lon": 3.6870930068740337,
        "alt_km": 19695.020035549514,
        "timestamp": "2025-12-14T11:29:50.319173+00:00",
        "meta_object_name": "GPS BIIRM-6 (PRN 07)",
        "meta_object_id": "2008-012A",
        "meta_epoch": "2025-12-12T16:10:17.016384",
        "meta_mean_motion": 2.00565624,
        "meta_eccentricity": 0.02024443,
        "meta_inclination": 54.4771,
        "meta_ra_of_asc_node": 157.3754,
        "meta_arg_of_pericenter": 244.95,
        "meta_mean_anomaly": 112.9478,
        "meta_ephemeris_type": 0,
        "meta_classification_type": "U",
        "meta_norad_cat_id": 32711,
        "meta_element_set_no": 999,
        "meta_rev_at_epoch": 13001,
        "meta_bstar": 0,
        "meta_mean_motion_dot": 9.7e-07,
        "meta_mean_motion_ddot": 0,
        "tle_line1": "1 32711U 08012A   25346.67380806  .00000097  00000+0  00000+0 0  9997",
        "tle_line2": "2 32711  54.4771 157.3754 0202444 244.9500 112.9478  2.00565624130013"
      },
      "geometry": {
        "type": "Point",
        "coordinates": [
          3.6870930068740337,
          -31.88211568750513
        ]
      }
    },
    {
      "type": "Feature",
      "properties": {
        "norad_id": 35752,
        "name": "GPS BIIRM-8 (PRN 05)",
        "group": "gps-ops",
        "lat": -46.87439606608636,
        "lon": -99.41705058020044,
        "alt_km": 20316.40469476931,
        "timestamp": "2025-12-14T11:29:50.319185+00:00",
        "meta_object_name": "GPS BIIRM-8 (PRN 05)",
        "meta_object_id": "2009-043A",
        "meta_epoch": "2025-12-13T15:33:53.607168",
        "meta_mean_motion": 2.00565679,
        "meta_eccentricity": 0.00517811,
        "meta_inclination": 56.0916,
        "meta_ra_of_asc_node": 34.7471,
        "meta_arg_of_pericenter": 81.8933,
        "meta_mean_anomaly": 279.8016,
        "meta_ephemeris_type": 0,
        "meta_classification_type": "U",
        "meta_norad_cat_id": 35752,
        "meta_element_set_no": 999,
        "meta_rev_at_epoch": 11964,
        "meta_bstar": 0,
        "meta_mean_motion_dot": -9.6e-07,
        "meta_mean_motion_ddot": 0,
        "tle_line1": "1 35752U 09043A   25347.64853712 -.00000096  00000+0  00000+0 0  9999",
        "tle_line2": "2 35752  56.0916  34.7471 0051781  81.8933 279.8016  2.00565679119645"
      },
      "geometry": {
        "type": "Point",
        "coordinates": [
          -99.41705058020044,
          -46.87439606608636
        ]
      }
    },
    {
      "type": "Feature",
      "properties": {
        "norad_id": 36585,
        "name": "GPS BIIF-1  (PRN 25)",
        "group": "gps-ops",
        "lat": -1.3856178436853817,
        "lon": -144.98342217968292,
        "alt_km": 20047.65795270933,
        "timestamp": "2025-12-14T11:29:50.319196+00:00",
        "meta_object_name": "GPS BIIF-1  (PRN 25)",
        "meta_object_id": "2010-022A",
        "meta_epoch": "2025-12-13T05:27:57.415104",
        "meta_mean_motion": 2.00553278,
        "meta_eccentricity": 0.01261295,
        "meta_inclination": 54.3,
        "meta_ra_of_asc_node": 216.0542,
        "meta_arg_of_pericenter": 65.0762,
        "meta_mean_anomaly": 111.1577,
        "meta_ephemeris_type": 0,
        "meta_classification_type": "U",
        "meta_norad_cat_id": 36585,
        "meta_element_set_no": 999,
        "meta_rev_at_epoch": 11386,
        "meta_bstar": 0,
        "meta_mean_motion_dot": 3.5e-07,
        "meta_mean_motion_ddot": 0,
        "tle_line1": "1 36585U 10022A   25347.22774786  .00000035  00000+0  00000+0 0  9992",
        "tle_line2": "2 36585  54.3000 216.0542 0126129  65.0762 111.1577  2.00553278113862"
      },
      "geometry": {
        "type": "Point",
        "coordinates": [
          -144.98342217968292,
          -1.3856178436853817
        ]
      }
    }
  ]
}